MEAN_MOTION;ECCENTRICITY;INCLINATION;RA_OF_ASC_NODE;ARG_OF_PERICENTER;MEAN_ANOMALY;BSTAR;MEAN_MOTION_DOT;MEAN_MOTION_DDOT;TYPE
2.00566483;0.0054062;54.3954;133.6959;38.6774;271.6421;0;7.0E-8;0;Navigation
2.00566483;0.0054062;54.3954;133.6959;38.6774;271.6421;0;7.0E-8;0;Navigation
2.00566378;0.005406;54.3959;133.6453;38.6519;91.1828;0;1.3E-7;0;Navigation
2.00566354;0.0054064;54.396;133.6322;38.6516;323.2274;0;1.5E-7;0;Navigation
2.00566299;0.0054063;54.3962;133.6044;38.6346;98.8854;0;1.9E-7;0;Navigation
2.00566299;0.0054063;54.3962;133.6044;38.6346;98.8854;0;1.9E-7;0;Navigation
2.00566241;0.0054072;54.3965;133.5752;38.6213;257.4039;0;2.4E-7;0;Navigation
2.00566197;0.005407;54.3967;133.5506;38.6282;335.4877;0;2.7E-7;0;Navigation
2.00566197;0.005407;54.3967;133.5506;38.6282;335.4877;0;2.7E-7;0;Navigation
2.00566099;0.005408;54.3972;133.4906;38.6091;320.4667;0;2.9E-7;0;Navigation
2.00566063;0.0054083;54.3973;133.4703;38.5982;323.0122;0;2.7E-7;0;Navigation
2.00565973;0.0054093;54.3978;133.4133;38.5782;255.4503;0;1.7E-7;0;Navigation
2.0056597;0.0054091;54.3979;133.4098;38.579;317.6011;0;1.6E-7;0;Navigation
2.00565917;0.0054095;54.3982;133.3692;38.568;318.1726;0;5.0E-8;0;Navigation
2.00565881;0.0054095;54.3984;133.3431;38.5595;62.0083;0;-2.0E-8;0;Navigation
2.00565863;0.0054099;54.3986;133.3285;38.5585;321.2476;0;-6.0E-8;0;Navigation
2.00565863;0.0054099;54.3986;133.3285;38.5585;321.2476;0;-6.0E-8;0;Navigation
2.00565809;0.00541;54.399;133.2803;38.5464;97.2017;0;-1.7E-7;0;Navigation
2.00565777;0.0054103;54.3992;133.2574;38.5449;144.3688;0;-2.0E-7;0;Navigation
2.00565765;0.0054106;54.3994;133.2473;38.5471;323.6859;0;-2.0E-7;0;Navigation
2.00565716;0.0054109;54.3997;133.21;38.5343;266.2956;0;-2.0E-7;0;Navigation
2.00565679;0.0054109;54.4;133.181;38.5414;61.3238;0;-1.7E-7;0;Navigation
2.00565635;0.0054117;54.4003;133.1456;38.5298;330.8842;0;-9.0E-8;0;Navigation
2.00565578;0.0054122;54.4007;133.1086;38.5114;269.0294;0;1.0E-8;0;Navigation
2.00565512;0.0054133;54.4011;133.0651;38.506;323.3894;0;1.5E-7;0;Navigation
2.00565458;0.0054132;54.4013;133.0364;38.4964;114.3824;0;2.5E-7;0;Navigation
2.0056542;0.0054138;54.4016;133.0148;38.4926;137.5264;0;3.1E-7;0;Navigation
2.00565391;0.0054142;54.4017;132.9975;38.493;85.5101;0;3.6E-7;0;Navigation
2.00565343;0.0054148;54.4019;132.9739;38.4898;145.3118;0;4.2E-7;0;Navigation
2.00565343;0.0054148;54.4019;132.9739;38.4898;145.3118;0;4.2E-7;0;Navigation
2.00565284;0.0054161;54.4022;132.9468;38.4862;268.2267;0;4.7E-7;0;Navigation
2.00565284;0.0054161;54.4022;132.9468;38.4862;268.2267;0;4.7E-7;0;Navigation
2.00565145;0.0054177;54.4028;132.883;38.474;323.1273;0;5.4E-7;0;Navigation
2.00565075;0.0054178;54.4031;132.8552;38.4616;97.1726;0;5.5E-7;0;Navigation
2.00565075;0.0054178;54.4031;132.8552;38.4616;97.1726;0;5.5E-7;0;Navigation
2.00565021;0.0054185;54.4033;132.8327;38.4515;137.2857;0;5.5E-7;0;Navigation
2.00564987;0.0054193;54.4034;132.8211;38.4627;344.6994;0;5.4E-7;0;Navigation
2.00564987;0.0054193;54.4034;132.8211;38.4627;344.6994;0;5.4E-7;0;Navigation
2.0056481;0.0054217;54.4041;132.7516;38.4312;141.158;0;5.0E-7;0;Navigation
2.00564783;0.0054224;54.4042;132.7406;38.4393;337.6893;0;4.9E-7;0;Navigation
2.00564716;0.005423;54.4045;132.7129;38.4312;110.0999;0;4.6E-7;0;Navigation
2.00564669;0.0054238;54.4047;132.6935;38.4316;95.9305;0;4.5E-7;0;Navigation
2.00564669;0.0054238;54.4047;132.6935;38.4316;95.9305;0;4.5E-7;0;Navigation
2.00564669;0.0054238;54.4047;132.6935;38.4316;95.9305;0;4.5E-7;0;Navigation
2.00564432;0.0054274;54.4058;132.5921;38.4263;98.4643;0;4.5E-7;0;Navigation
2.00564432;0.0054274;54.4058;132.5921;38.4263;98.4643;0;4.5E-7;0;Navigation
2.00564345;0.0054285;54.4062;132.5532;38.427;70.0274;0;4.9E-7;0;Navigation
2.00564268;0.0054299;54.4065;132.5188;38.4247;322.5172;0;5.4E-7;0;Navigation
2.00564246;0.0054301;54.4066;132.5086;38.4167;143.9887;0;5.6E-7;0;Navigation
2.00564173;0.0054309;54.407;132.4714;38.4157;85.9468;0;6.1E-7;0;Navigation
2.00564173;0.0054309;54.407;132.4714;38.4157;85.9468;0;6.1E-7;0;Navigation
2.00564092;0.0054323;54.4074;132.4278;38.417;142.4433;0;6.6E-7;0;Navigation
2.00564057;0.0054329;54.4076;132.4075;38.4148;143.6161;0;6.7E-7;0;Navigation
2.00563995;0.0054339;54.408;132.3701;38.4163;89.1475;0;6.5E-7;0;Navigation
2.00563942;0.0054352;54.4084;132.3344;38.4231;3.1456;0;6.0E-7;0;Navigation
2.00563858;0.0054372;54.4089;132.2761;38.4359;320.7489;0;4.5E-7;0;Navigation
2.00563802;0.0054383;54.4093;132.2357;38.4417;318.7867;0;3.2E-7;0;Navigation
2.00563768;0.0054386;54.4096;132.2097;38.4479;60.1441;0;2.5E-7;0;Navigation
2.00563734;0.0054393;54.4099;132.1847;38.4456;145.3627;0;1.9E-7;0;Navigation
2.00563694;0.0054403;54.4102;132.1546;38.4493;321.8937;0;1.4E-7;0;Navigation
2.00563657;0.0054406;54.4105;132.1241;38.4506;143.4247;0;1.2E-7;0;Navigation
2.00563657;0.0054406;54.4105;132.1241;38.4506;143.4247;0;1.2E-7;0;Navigation
2.00563606;0.0054415;54.411;132.0837;38.4472;143.9787;0;1.4E-7;0;Navigation
2.00563578;0.0054422;54.4112;132.0635;38.4397;141.8164;0;1.6E-7;0;Navigation
2.0056355;0.0054428;54.4114;132.0431;38.4389;145.5397;0;2.0E-7;0;Navigation
2.0056355;0.0054428;54.4114;132.0431;38.4389;145.5397;0;2.0E-7;0;Navigation
2.00563441;0.0054457;54.4121;131.9726;38.4538;321.578;0;4.0E-7;0;Navigation
2.00563387;0.0054458;54.4124;131.9449;38.4638;94.0034;0;4.8E-7;0;Navigation
2.00563387;0.0054458;54.4124;131.9449;38.4638;94.0034;0;4.8E-7;0;Navigation
2.0056327;0.0054485;54.4131;131.8816;38.4713;141.393;0;6.5E-7;0;Navigation
2.0056319;0.00545;54.4135;131.8438;38.4785;93.9092;0;7.2E-7;0;Navigation
2.00563065;0.005453;54.414;131.7906;38.481;321.113;0;7.7E-7;0;Navigation
2.00563004;0.0054535;54.4143;131.7647;38.4839;62.6924;0;7.8E-7;0;Navigation
2.00562901;0.0054554;54.4147;131.7232;38.4847;80.6037;0;7.7E-7;0;Navigation
2.00562843;0.0054566;54.415;131.6996;38.4815;140.9522;0;7.5E-7;0;Navigation
2.00562843;0.0054566;54.415;131.6996;38.4815;140.9522;0;7.5E-7;0;Navigation
2.00562843;0.0054566;54.415;131.6996;38.4815;140.9522;0;7.5E-7;0;Navigation
2.00562843;0.0054566;54.415;131.6996;38.4815;140.9522;0;7.5E-7;0;Navigation
2.00562615;0.0054634;54.4159;131.6087;38.4979;320.7267;0;6.7E-7;0;Navigation
2.00562615;0.0054634;54.4159;131.6087;38.4979;320.7267;0;6.7E-7;0;Navigation
2.00562615;0.0054634;54.4159;131.6087;38.4979;320.7267;0;6.7E-7;0;Navigation
2.00562528;0.0054645;54.4162;131.5784;38.4973;140.4101;0;6.4E-7;0;Navigation
2.00562456;0.0054675;54.4166;131.548;38.5099;321.5206;0;6.2E-7;0;Navigation
2.00562456;0.0054675;54.4166;131.548;38.5099;321.5206;0;6.2E-7;0;Navigation
2.00562301;0.0054686;54.4172;131.4867;38.5429;333.5156;0;6.2E-7;0;Navigation
2.00562172;0.005471;54.4177;131.4268;38.559;320.2816;0;6.8E-7;0;Navigation
2.00562172;0.005471;54.4177;131.4268;38.559;320.2816;0;6.8E-7;0;Navigation
2.00562071;0.0054725;54.4183;131.3783;38.5641;103.7837;0;7.4E-7;0;Navigation
2.00562031;0.0054732;54.4186;131.3589;38.57;87.9576;0;7.6E-7;0;Navigation
2.00562031;0.0054732;54.4186;131.3589;38.57;87.9576;0;7.6E-7;0;Navigation
2.00562031;0.0054732;54.4186;131.3589;38.57;87.9576;0;7.6E-7;0;Navigation
2.00561903;0.0054772;54.4192;131.2914;38.586;208.9404;0;7.8E-7;0;Navigation
2.00561903;0.0054772;54.4192;131.2914;38.586;208.9404;0;7.8E-7;0;Navigation
2.0056183;0.0054792;54.4196;131.2529;38.5948;174.0237;0;7.4E-7;0;Navigation
2.00561799;0.0054797;54.4198;131.2357;38.6035;120.6463;0;7.1E-7;0;Navigation
2.00561769;0.0054805;54.4199;131.2165;38.6133;103.0619;0;6.6E-7;0;Navigation
2.00561736;0.0054819;54.4202;131.194;38.6244;143.7915;0;6.0E-7;0;Navigation
2.00561678;0.0054837;54.4206;131.1538;38.6441;139.6881;0;4.7E-7;0;Navigation
2.00561678;0.0054837;54.4206;131.1538;38.6441;139.6881;0;4.7E-7;0;Navigation
2.00561588;0.0054877;54.4212;131.091;38.668;176.9015;0;2.7E-7;0;Navigation
2.0056155;0.0054888;54.4215;131.0628;38.6863;319.4252;0;2.0E-7;0;Navigation
2.00561525;0.0054889;54.4216;131.0477;38.6919;228.6821;0;1.7E-7;0;Navigation
2.00561493;0.0054908;54.4219;131.022;38.7067;325.1631;0;1.4E-7;0;Navigation
2.00561493;0.0054908;54.4219;131.022;38.7067;325.1631;0;1.4E-7;0;Navigation
2.00561418;0.0054923;54.4224;130.9679;38.7225;208.8248;0;1.5E-7;0;Navigation
2.00561392;0.0054934;54.4226;130.9464;38.7327;232.137;0;1.8E-7;0;Navigation
2.00561392;0.0054934;54.4226;130.9464;38.7327;232.137;0;1.8E-7;0;Navigation
2.0056129;0.0054955;54.4234;130.8708;38.7653;138.4624;0;3.6E-7;0;Navigation
2.0056124;0.0054975;54.4237;130.8402;38.7846;324.6642;0;4.4E-7;0;Navigation
2.00561183;0.0054979;54.4239;130.8113;38.8004;119.4508;0;5.1E-7;0;Navigation
2.00561183;0.0054979;54.4239;130.8113;38.8004;119.4508;0;5.1E-7;0;Navigation
2.00561062;0.0055013;54.4245;130.7493;38.832;144.4659;0;6.3E-7;0;Navigation
2.00560996;0.0055032;54.4248;130.7244;38.8418;226.5571;0;6.6E-7;0;Navigation
2.0056095;0.0055044;54.4249;130.7053;38.8503;206.6581;0;6.7E-7;0;Navigation
2.005609;0.0055061;54.4251;130.6836;38.8589;234.0249;0;6.8E-7;0;Navigation
2.00560851;0.0055071;54.4253;130.6642;38.8661;218.2323;0;6.8E-7;0;Navigation
2.00560815;0.0055073;54.4254;130.6495;38.8749;121.1465;0;6.7E-7;0;Navigation
2.00560815;0.0055073;54.4254;130.6495;38.8749;121.1465;0;6.7E-7;0;Navigation
2.00560701;0.0055105;54.4259;130.604;38.8907;211.3142;0;6.4E-7;0;Navigation
2.00560701;0.0055105;54.4259;130.604;38.8907;211.3142;0;6.4E-7;0;Navigation
2.00560563;0.0055135;54.4264;130.5485;38.9167;120.904;0;5.8E-7;0;Navigation
2.00560485;0.0055163;54.4267;130.5172;38.9397;317.9046;0;5.4E-7;0;Navigation
2.00560412;0.0055171;54.427;130.4881;38.9471;116.4634;0;5.0E-7;0;Navigation
2.00560365;0.0055182;54.4271;130.469;38.961;96.6679;0;4.9E-7;0;Navigation
2.00560279;0.0055206;54.4275;130.4355;38.9877;333.402;0;4.6E-7;0;Navigation
2.00560279;0.0055206;54.4275;130.4355;38.9877;333.402;0;4.6E-7;0;Navigation
2.00560279;0.0055206;54.4275;130.4355;38.9877;333.402;0;4.6E-7;0;Navigation
2.00560095;0.0055266;54.4282;130.3603;39.0367;233.3054;0;4.6E-7;0;Navigation
2.00560095;0.0055266;54.4282;130.3603;39.0367;233.3054;0;4.6E-7;0;Navigation
